{
  "type": "FeatureCollection",
  "features": [
    {
      "type": "Feature",
      "properties": {
        "norad_id": 34907,
        "name": "COSMOS 2251 DEB",
        "group": "cosmos-2251-debris",
        "lat": -46.73987829361492,
        "lon": -123.08323470271925,
        "alt_km": 436.2299770593363,
        "timestamp": "2025-12-16T23:36:36.593482+00:00",
        "meta_object_name": "COSMOS 2251 DEB",
        "meta_object_id": "1993-036ADC",
        "meta_epoch": "2025-12-15T03:08:27.494592",
        "meta_mean_motion": 15.45801338,
        "meta_eccentricity": 0.00202571,
        "meta_inclination": 73.97,
        "meta_ra_of_asc_node": 43.1829,
        "meta_arg_of_pericenter": 337.9656,
        "meta_mean_anomaly": 22.0681,
        "meta_ephemeris_type": 0,
        "meta_classification_type": "U",
        "meta_norad_cat_id": 34907,
        "meta_element_set_no": 999,
        "meta_rev_at_epoch": 88010,
        "meta_bstar": 0.0046562373,
        "meta_mean_motion_dot": 0.00234249,
        "meta_mean_motion_ddot": 0,
        "tle_line1": "1 34907U 93036ADC 25349.13087378  .00234249  00000+0  46562-2 0  9992",
        "tle_line2": "2 34907  73.9700  43.1829 0020257 337.9656  22.0681 15.45801338880107"
      },
      "geometry": {
        "type": "Point",
        "coordinates": [
          -123.08323470271925,
          -46.73987829361492
        ]
      }
    },
    {
      "type": "Feature",
      "properties": {
        "norad_id": 34908,
        "name": "COSMOS 2251 DEB",
        "group": "cosmos-2251-debris",
        "lat": 62.95284630532554,
        "lon": 49.90048107754178,
        "alt_km": 737.6692126679736,
        "timestamp": "2025-12-16T23:36:36.593492+00:00",
        "meta_object_name": "COSMOS 2251 DEB",
        "meta_object_id": "1993-036ADD",
        "meta_epoch": "2025-12-16T08:20:23.373600",
        "meta_mean_motion": 14.37409352,
        "meta_eccentricity": 0.00402012,
        "meta_inclination": 74.0592,
        "meta_ra_of_asc_node": 17.0272,
        "meta_arg_of_pericenter": 31.9708,
        "meta_mean_anomaly": 344.5222,
        "meta_ephemeris_type": 0,
        "meta_classification_type": "U",
        "meta_norad_cat_id": 34908,
        "meta_element_set_no": 999,
        "meta_rev_at_epoch": 87331,
        "meta_bstar": 0.00040235531,
        "meta_mean_motion_dot": 1.188e-05,
        "meta_mean_motion_ddot": 0,
        "tle_line1": "1 34908U 93036ADD 25350.34749275  .00001188  00000+0  40236-3 0  9996",
        "tle_line2": "2 34908  74.0592  17.0272 0040201  31.9708 344.5222 14.37409352873319"
      },
      "geometry": {
        "type": "Point",
        "coordinates": [
          49.90048107754178,
          62.95284630532554
        ]
      }
    },
    {
      "type": "Feature",
      "properties": {
        "norad_id": 34909,
        "name": "COSMOS 2251 DEB",
        "group": "cosmos-2251-debris",
        "lat": 72.24142942579711,
        "lon": -175.2876535722782,
        "alt_km": 643.8023273604504,
        "timestamp": "2025-12-16T23:36:36.593503+00:00",
        "meta_object_name": "COSMOS 2251 DEB",
        "meta_object_id": "1993-036ADE",
        "meta_epoch": "2025-12-16T05:17:32.154720",
        "meta_mean_motion": 14.77866613,
        "meta_eccentricity": 0.00842852,
        "meta_inclination": 74.0148,
        "meta_ra_of_asc_node": 69.7282,
        "meta_arg_of_pericenter": 204.717,
        "meta_mean_anomaly": 154.9958,
        "meta_ephemeris_type": 0,
        "meta_classification_type": "U",
        "meta_norad_cat_id": 34909,
        "meta_element_set_no": 999,
        "meta_rev_at_epoch": 66903,
        "meta_bstar": 0.00040123698,
        "meta_mean_motion_dot": 3.026e-05,
        "meta_mean_motion_ddot": 0,
        "tle_line1": "1 34909U 93036ADE 25350.22051105  .00003026  00000+0  40124-3 0  9991",
        "tle_line2": "2 34909  74.0148  69.7282 0084285 204.7170 154.9958 14.77866613669037"
      },
      "geometry": {
        "type": "Point",
        "coordinates": [
          -175.2876535722782,
          72.24142942579711
        ]
      }
    },
    {
      "type": "Feature",
      "properties": {
        "norad_id": 34910,
        "name": "COSMOS 2251 DEB",
        "group": "cosmos-2251-debris",
        "lat": 66.5681194065999,
        "lon": 136.5955262295845,
        "alt_km": 1373.3515399219505,
        "timestamp": "2025-12-16T23:36:36.593513+00:00",
        "meta_object_name": "COSMOS 2251 DEB",
        "meta_object_id": "1993-036ADF",
        "meta_epoch": "2025-12-16T00:48:30.580128",
        "meta_mean_motion": 13.37690746,
        "meta_eccentricity": 0.04679747,
        "meta_inclination": 73.876,
        "meta_ra_of_asc_node": 96.2259,
        "meta_arg_of_pericenter": 214.6056,
        "meta_mean_anomaly": 328.1497,
        "meta_ephemeris_type": 0,
        "meta_classification_type": "U",
        "meta_norad_cat_id": 34910,
        "meta_element_set_no": 999,
        "meta_rev_at_epoch": 81568,
        "meta_bstar": 0.0011529423,
        "meta_mean_motion_dot": 1.118e-05,
        "meta_mean_motion_ddot": 0,
        "tle_line1": "1 34910U 93036ADF 25350.03368727  .00001118  00000+0  11529-2 0  9999",
        "tle_line2": "2 34910  73.8760  96.2259 0467974 214.6056 328.1497 13.37690746815682"
      },
      "geometry": {
        "type": "Point",
        "coordinates": [
          136.5955262295845,
          66.5681194065999
        ]
      }
    },
    {
      "type": "Feature",
      "properties": {
        "norad_id": 34911,
        "name": "COSMOS 2251 DEB",
        "group": "cosmos-2251-debris",
        "lat": -73.96217851479219,
        "lon": 152.09933252620883,
        "alt_km": 701.1020463658642,
        "timestamp": "2025-12-16T23:36:36.593523+00:00",
        "meta_object_name": "COSMOS 2251 DEB",
        "meta_object_id": "1993-036ADG",
        "meta_epoch": "2025-12-16T03:18:31.490208",
        "meta_mean_motion": 14.59377827,
        "meta_eccentricity": 0.00837527,
        "meta_inclination": 74.0408,
        "meta_ra_of_asc_node": 238.2681,
        "meta_arg_of_pericenter": 2.8057,
        "meta_mean_anomaly": 147.3682,
        "meta_ephemeris_type": 0,
        "meta_classification_type": "U",
        "meta_norad_cat_id": 34911,
        "meta_element_set_no": 999,
        "meta_rev_at_epoch": 88636,
        "meta_bstar": 0.00014266986,
        "meta_mean_motion_dot": 6.77e-06,
        "meta_mean_motion_ddot": 0,
        "tle_line1": "1 34911U 93036ADG 25350.13786447  .00000677  00000+0  14267-3 0  9996",
        "tle_line2": "2 34911  74.0408 238.2681 0083752   2.8057 147.3682 14.59377827886365"
      },
      "geometry": {
        "type": "Point",
        "coordinates": [
          152.09933252620883,
          -73.96217851479219
        ]
      }
    },
    {
      "type": "Feature",
      "properties": {
        "norad_id": 34913,
        "name": "COSMOS 2251 DEB",
        "group": "cosmos-2251-debris",
        "lat": -69.93564873676979,
        "lon": 146.36173234744106,
        "alt_km": 791.7328397864367,
        "timestamp": "2025-12-16T23:36:36.593534+00:00",
        "meta_object_name": "COSMOS 2251 DEB",
        "meta_object_id": "1993-036ADJ",
        "meta_epoch": "2025-12-13T12:56:38.472288",
        "meta_mean_motion": 14.34637945,
        "meta_eccentricity": 0.00203757,
        "meta_inclination": 74.0284,
        "meta_ra_of_asc_node": 281.0321,
        "meta_arg_of_pericenter": 30.7723,
        "meta_mean_anomaly": 84.8293,
        "meta_ephemeris_type": 0,
        "meta_classification_type": "U",
        "meta_norad_cat_id": 34913,
        "meta_element_set_no": 999,
        "meta_rev_at_epoch": 65199,
        "meta_bstar": 8.4132523e-05,
        "meta_mean_motion_dot": 2.12e-06,
        "meta_mean_motion_ddot": 0,
        "tle_line1": "1 34913U 93036ADJ 25347.53933417  .00000212  00000+0  84133-4 0  9994",
        "tle_line2": "2 34913  74.0284 281.0321 0020375  30.7723  84.8293 14.34637945651993"
      },
      "geometry": {
        "type": "Point",
        "coordinates": [
          146.36173234744106,
          -69.93564873676979
        ]
      }
    },
    {
      "type": "Feature",
      "properties": {
        "norad_id": 34918,
        "name": "COSMOS 2251 DEB",
        "group": "cosmos-2251-debris",
        "lat": 74.05799587869083,
        "lon": 36.815915210168704,
        "alt_km": 705.2150232963941,
        "timestamp": "2025-12-16T23:36:36.593543+00:00",
        "meta_object_name": "COSMOS 2251 DEB",
        "meta_object_id": "1993-036ADP",
        "meta_epoch": "2025-12-16T03:32:45.203424",
        "meta_mean_motion": 14.61263595,
        "meta_eccentricity": 0.0033386,
        "meta_inclination": 74.0718,
        "meta_ra_of_asc_node": 307.1266,
        "meta_arg_of_pericenter": 274.2128,
        "meta_mean_anomaly": 100.0438,
        "meta_ephemeris_type": 0,
        "meta_classification_type": "U",
        "meta_norad_cat_id": 34918,
        "meta_element_set_no": 999,
        "meta_rev_at_epoch": 65386,
        "meta_bstar": 0.0013983473,
        "meta_mean_motion_dot": 6.93e-05,
        "meta_mean_motion_ddot": 0,
        "tle_line1": "1 34918U 93036ADP 25350.14774541  .00006930  00000+0  13983-2 0  9997",
        "tle_line2": "2 34918  74.0718 307.1266 0033386 274.2128 100.0438 14.61263595653864"
      },
      "geometry": {
        "type": "Point",
        "coordinates": [
          36.815915210168704,
          74.05799587869083
        ]
      }
    }
  ]
}